IRIDIUM 57              
1 25273U 98019B   25016.52364638  .00000528  00000+0  17614-3 0  9993
2 25273  86.3961 208.7391 0001966  91.7265 268.4157 14.35686868403023
IRIDIUM 63              
1 25286U 98021B   25016.39008910  .00000806  00000+0  26926-3 0  9998
2 25286  86.4023 145.7902 0002117  90.6034 269.5406 14.36323120402057
IRIDIUM 69              
1 25319U 98026A   25016.44912476  .00001125  00000+0  34653-3 0  9998
2 25319  86.4019 159.4952 0003484 132.5650 227.5844 14.40677068401219
IRIDIUM 71              
1 25320U 98026B   25016.40802139  .00000891  00000+0  27184-3 0  9990
2 25320  86.4018 154.2370 0001600 164.9255 195.1993 14.40907611401737
IRIDIUM 73              
1 25344U 98032C   25016.33414583  .00001090  00000+0  26872-3 0  9992
2 25344  86.4425 111.3242 0002547 107.4022 252.7462 14.51351930408537
IRIDIUM 82              
1 25467U 98051A   25016.44638801  .00030122  00000+0  11214-2 0  9993
2 25467  86.3731 183.7280 0103156 148.7036 212.0407 15.22381854400793
